NORAD_CAT_ID,OBJECT_NAME,OBJECT_TYPE,EPOCH,MEAN_MOTION,ECCENTRICITY,INCLINATION,RA_OF_ASC_NODE,ARG_OF_PERICENTER,MEAN_ANOMALY,BSTAR,MEAN_MOTION_DOT,MEAN_MOTION_DDOT,TLE_LINE0,TLE_LINE1,TLE_LINE2,SEMIMAJOR_AXIS,PERIOD,APOGEE,PERIGEE,DECAYED
53588.0,STARLINK-4691,PAYLOAD,2023-07-02 14:57:37,15.08865661,9.04e-05,53.2165,328.5495,91.7286,268.381,0.00049597,7.62e-05,0.0,0 STARLINK-4691,1 53588U 22104A   23183.62334508  .00007620  00000-0  49597-3 0  9998,2 53588  53.2165 328.5495 0000904  91.7286 268.3810 15.08865661 46818,6917.802,95.436,540.292,539.042,0.0
53588.0,STARLINK-4691,PAYLOAD,2023-07-03 05:16:05,15.08842708,0.0001439,53.2168,325.8747,108.8503,251.2645,0.00013644,1.884e-05,0.0,0 STARLINK-4691,1 53588U 22104A   23184.21950938  .00001884  00000-0  13644-3 0  9995,2 53588  53.2168 325.8747 0001439 108.8503 251.2645 15.08842708 46901,6917.872,95.437,540.733,538.742,0.0
53588.0,STARLINK-4691,PAYLOAD,2023-07-03 16:23:48,15.08831832,0.0001059,53.217,323.7929,91.0569,269.0544,7.643e-05,9.29e-06,0.0,0 STARLINK-4691,1 53588U 22104A   23184.68320080  .00000929  00000-0  76430-4 0  9997,2 53588  53.2170 323.7929 0001059  91.0569 269.0544 15.08831832 46974,6917.905,95.438,540.503,539.038,0.0
53588.0,STARLINK-4691,PAYLOAD,2023-07-04 09:53:02,15.08843523,0.0001116,53.2166,320.5222,85.3352,274.7768,-0.00026971,-4.578e-05,0.0,0 STARLINK-4691,1 53588U 22104A   23185.41183517 -.00004578  00000-0 -26971-3 0  9991,2 53588  53.2166 320.5222 0001116  85.3352 274.7768 15.08843523 47084,6917.87,95.437,540.507,538.963,0.0
53588.0,STARLINK-4691,PAYLOAD,2023-07-05 14:29:59,15.08835647,0.0001282,53.2173,315.1713,101.0919,259.0217,0.00019513,2.819e-05,0.0,0 STARLINK-4691,1 53588U 22104A   23186.60416285  .00002819  00000-0  19513-3 0  9992,2 53588  53.2173 315.1713 0001282 101.0919 259.0217 15.08835647 47269,6917.894,95.438,540.646,538.872,0.0
53588.0,STARLINK-4691,PAYLOAD,2023-07-07 01:28:28,15.08843587,0.0001025,53.2157,308.627,87.3268,272.7841,0.00016554,2.348e-05,0.0,0 STARLINK-4691,1 53588U 22104A   23188.06144168  .00002348  00000-0  16554-3 0  9991,2 53588  53.2157 308.6270 0001025  87.3268 272.7841 15.08843587 47485,6917.869,95.437,540.444,539.025,0.0
53588.0,STARLINK-4691,PAYLOAD,2023-07-08 17:13:06,15.08847445,0.0001265,53.2172,301.1892,100.4993,259.6142,8.3944e-05,1.049e-05,0.0,0 STARLINK-4691,1 53588U 22104A   23189.71743681  .00001049  00000-0  83944-4 0  9994,2 53588  53.2172 301.1892 0001265 100.4993 259.6142 15.08847445 47731,6917.858,95.437,540.598,538.848,0.0
53588.0,STARLINK-4691,PAYLOAD,2023-07-09 12:17:45,15.08833142,0.0001195,53.215,297.6216,70.1516,289.9604,-4.9981e-05,-1.083e-05,0.0,0 STARLINK-4691,1 53588U 22104A   23190.51232640 -.00001083  00000-0 -49981-4 0  9995,2 53588  53.2150 297.6216 0001195  70.1516 289.9604 15.08833142 47853,6917.901,95.438,540.593,538.94,0.0
53588.0,STARLINK-4691,PAYLOAD,2023-07-10 10:33:08,15.08841679,0.00011,53.2173,293.4611,90.5602,269.5516,9.8525e-05,1.281e-05,0.0,0 STARLINK-4691,1 53588U 22104A   23191.43968210  .00001281  00000-0  98525-4 0  9992,2 53588  53.2173 293.4611 0001100  90.5602 269.5516 15.08841679 47994,6917.875,95.437,540.501,538.979,0.0
53588.0,STARLINK-4691,PAYLOAD,2023-07-11 10:23:56,15.08835548,0.00011,53.2167,289.0019,91.2511,268.8607,0.00010048,1.312e-05,0.0,0 STARLINK-4691,1 53588U 22104A   23192.43328809  .00001312  00000-0  10048-3 0  9995,2 53588  53.2167 289.0019 0001100  91.2511 268.8607 15.08835548 48146,6917.894,95.438,540.52,538.998,0.0
53588.0,STARLINK-4691,PAYLOAD,2023-07-12 16:36:15,15.08834898,0.0001296,53.2182,283.35,83.294,276.8199,0.00015836,2.233e-05,0.0,0 STARLINK-4691,1 53588U 22104A   23193.69184780  .00002233  00000-0  15836-3 0  9995,2 53588  53.2182 283.3500 0001296  83.2940 276.8199 15.08834898 48331,6917.896,95.438,540.658,538.864,0.0
53588.0,STARLINK-4691,PAYLOAD,2023-07-14 09:56:17,15.08838617,0.000138,53.2173,275.6197,80.3403,279.7745,6.6327e-05,7.68e-06,0.0,0 STARLINK-4691,1 53588U 22104A   23195.41409133  .00000768  00000-0  66327-4 0  9992,2 53588  53.2173 275.6197 0001380  80.3403 279.7745 15.08838617 48593,6917.885,95.438,540.704,538.795,0.0
53588.0,STARLINK-4691,PAYLOAD,2023-07-15 16:08:36,15.08852421,0.0001276,53.2168,269.9704,79.8297,280.2839,0.00014775,2.065e-05,0.0,0 STARLINK-4691,1 53588U 22104A   23196.67263961  .00002065  00000-0  14775-3 0  9999,2 53588  53.2168 269.9704 0001276  79.8297 280.2839 15.08852421 48786,6917.842,95.437,540.59,538.825,0.0
53588.0,STARLINK-4691,PAYLOAD,2023-07-15 22:30:09,15.08835748,0.0001173,53.2168,268.7813,78.542,281.5704,1.2864e-05,-8.3e-07,0.0,0 STARLINK-4691,1 53588U 22104A   23196.93761319 -.00000083  00000-0  12864-4 0  9995,2 53588  53.2168 268.7813 0001173  78.5420 281.5704 15.08835748 48827,6917.893,95.438,540.57,538.947,0.0
53588.0,STARLINK-4691,PAYLOAD,2023-07-17 11:04:01,15.08848635,0.0001144,53.2155,261.9405,92.0138,268.0985,0.00010474,1.38e-05,0.0,0 STARLINK-4691,1 53588U 22104A   23198.46112570  .00001380  00000-0  10474-3 0  9998,2 53588  53.2155 261.9405 0001144  92.0138 268.0985 15.08848635 49056,6917.854,95.437,540.51,538.928,0.0
53588.0,STARLINK-4691,PAYLOAD,2023-07-18 09:19:25,15.08842608,0.0001185,53.2149,257.7777,85.8903,274.2224,0.0002098,3.053e-05,0.0,0 STARLINK-4691,1 53588U 22104A   23199.38849149  .00003053  00000-0  20980-3 0  9991,2 53588  53.2149 257.7777 0001185  85.8903 274.2224 15.08842608 49193,6917.872,95.437,540.557,538.918,0.0
53588.0,STARLINK-4691,PAYLOAD,2023-07-19 09:10:12,15.08834731,0.0001212,53.2152,253.3154,92.311,267.8021,-0.00010286,-1.924e-05,0.0,0 STARLINK-4691,1 53588U 22104A   23200.38209294 -.00001924  00000-0 -10286-3 0  9990,2 53588  53.2152 253.3154 0001212  92.3110 267.8021 15.08834731 49340,6917.896,95.438,540.6,538.923,0.0
53588.0,STARLINK-4691,PAYLOAD,2023-07-20 12:11:46,15.08837857,0.0001337,53.2147,248.2609,103.5394,256.5747,0.0001663,2.36e-05,0.0,0 STARLINK-4691,1 53588U 22104A   23201.50817745  .00002360  00000-0  16630-3 0  9993,2 53588  53.2147 248.2609 0001337 103.5394 256.5747 15.08837857 49510,6917.887,95.438,540.677,538.827,0.0
53588.0,STARLINK-4691,PAYLOAD,2023-07-24 11:34:54,15.08842249,0.0001382,53.2141,230.4186,85.5021,274.6129,0.00012069,1.633e-05,0.0,0 STARLINK-4691,1 53588U 22104A   23205.48257760  .00001633  00000-0  12069-3 0  9993,2 53588  53.2141 230.4186 0001382  85.5021 274.6129 15.08842249 51286,6917.874,95.437,540.695,538.782,0.0
53588.0,STARLINK-4691,PAYLOAD,2023-07-25 13:01:05,15.08838681,0.0001226,53.214,225.6598,87.8488,272.2644,6.9349e-05,8.16e-06,0.0,0 STARLINK-4691,1 53588U 22104A   23206.54241981  .00000816  00000-0  69349-4 0  9995,2 53588  53.2140 225.6598 0001226  87.8488 272.2644 15.08838681 51446,6917.884,95.438,540.598,538.901,0.0
53588.0,STARLINK-4691,PAYLOAD,2023-07-26 00:08:46,15.08839222,0.0001201,53.2141,223.5772,94.7258,265.3871,5.8282e-05,6.4e-06,0.0,0 STARLINK-4691,1 53588U 22104A   23207.00609945  .00000640  00000-0  58282-4 0  9994,2 53588  53.2141 223.5772 0001201  94.7258 265.3871 15.08839222 51518,6917.883,95.438,540.579,538.917,0.0
53588.0,STARLINK-4691,PAYLOAD,2023-07-26 08:05:42,15.08842283,0.0001189,53.2147,222.0907,92.4141,267.6988,8.378e-05,1.046e-05,0.0,0 STARLINK-4691,1 53588U 22104A   23207.33729809  .00001046  00000-0  83780-4 0  9994,2 53588  53.2147 222.0907 0001189  92.4141 267.6988 15.08842283 51569,6917.873,95.437,540.561,538.916,0.0
53588.0,STARLINK-4691,PAYLOAD,2023-07-27 01:34:57,15.08837816,0.0001204,53.2148,218.8199,88.0893,272.0237,8.8661e-05,1.123e-05,0.0,0 STARLINK-4691,1 53588U 22104A   23208.06594154  .00001123  00000-0  88661-4 0  9997,2 53588  53.2148 218.8199 0001204  88.0893 272.0237 15.08837816 50505,6917.887,95.438,540.585,538.919,0.0
53588.0,STARLINK-4691,PAYLOAD,2023-07-27 07:56:29,15.0883982,0.0001197,53.2147,217.6306,86.7801,273.3328,9.6285e-05,1.245e-05,0.0,0 STARLINK-4691,1 53588U 22104A   23208.33090047  .00001245  00000-0  96285-4 0  9995,2 53588  53.2147 217.6306 0001197  86.7801 273.3328 15.08839820 51712,6917.881,95.438,540.574,538.918,0.0
53588.0,STARLINK-4691,PAYLOAD,2023-07-28 01:25:44,15.08834452,0.0001208,53.2147,214.3597,87.8118,272.3012,2.8066e-05,1.59e-06,0.0,0 STARLINK-4691,1 53588U 22104A   23209.05954672  .00000159  00000-0  28066-4 0  9993,2 53588  53.2147 214.3597 0001208  87.8118 272.3012 15.08834452 50651,6917.897,95.438,540.598,538.927,0.0
53588.0,STARLINK-4691,PAYLOAD,2023-07-28 09:22:40,15.08835789,0.000123,53.2152,212.8734,89.0565,271.0568,3.8563e-05,3.26e-06,0.0,0 STARLINK-4691,1 53588U 22104A   23209.39074625  .00000326  00000-0  38563-4 0  9990,2 53588  53.2152 212.8734 0001230  89.0565 271.0568 15.08835789 51879,6917.893,95.438,540.609,538.907,0.0
53588.0,STARLINK-4691,PAYLOAD,2023-07-29 01:16:31,15.08840067,0.0001201,53.2153,209.8997,88.057,272.0559,7.9493e-05,9.78e-06,0.0,0 STARLINK-4691,1 53588U 22104A   23210.05314320  .00000978  00000-0  79493-4 0  9994,2 53588  53.2153 209.8997 0001201  88.0570 272.0559 15.08840067 50808,6917.88,95.438,540.576,538.914,0.0
53588.0,STARLINK-4691,PAYLOAD,2023-07-30 09:04:14,15.08842007,0.0001236,53.2152,203.9523,87.2157,272.8977,0.00010053,1.313e-05,0.0,0 STARLINK-4691,1 53588U 22104A   23211.37794279  .00001313  00000-0  10053-3 0  9995,2 53588  53.2152 203.9523 0001236  87.2157 272.8977 15.08842007 51008,6917.874,95.437,540.594,538.884,0.0
53588.0,STARLINK-4691,PAYLOAD,2023-08-01 02:24:15,15.0883966,0.000132,53.2151,196.2196,93.6204,266.4939,4.6076e-05,4.45e-06,0.0,0 STARLINK-4691,1 53588U 22104A   23213.10018462  .00000445  00000-0  46076-4 0  9991,2 53588  53.2151 196.2196 0001320  93.6204 266.4939 15.08839660 51261,6917.881,95.438,540.66,538.833,0.0
53588.0,STARLINK-4691,PAYLOAD,2023-08-02 07:01:12,15.08837439,0.0001325,53.2158,190.8673,94.6855,265.4289,3.2718e-05,2.33e-06,0.0,0 STARLINK-4691,1 53588U 22104A   23214.29250816  .00000233  00000-0  32718-4 0  9996,2 53588  53.2158 190.8673 0001325  94.6855 265.4289 15.08837439 51445,6917.888,95.438,540.67,538.837,0.0
